TISAT 1                 
1 36799U 10035E   26068.75703561  .00024554  00000+0  91005-3 0  9996
2 36799  98.0645   6.8512 0001343 159.3030 200.8262 15.27628633852505
STARLINK-33963          
1 63968U 25099S   26067.67090274  .00035994  00000+0  13112-2 0  9992
2 63968  42.9946 181.6926 0000985 305.2913  54.7846 15.27577129 47186
